CCSDS_OMM_VERS = 2.0
CREATION_DATE  = 
ORIGINATOR     = 

OBJECT_NAME    = STARLINK-36976
OBJECT_ID      = 2026-041AC
CENTER_NAME    = EARTH
REF_FRAME      = TEME
TIME_SYSTEM    = UTC
MEAN_ELEMENT_THEORY = SGP/SGP4

EPOCH          = 2026-03-18T20:00:01.999008
MEAN_MOTION    = 15.75205882
ECCENTRICITY   = .0001143
INCLINATION    = 53.1601
RA_OF_ASC_NODE = 16.1698
ARG_OF_PERICENTER = 110.4062
MEAN_ANOMALY   = 350.1797

EPHEMERIS_TYPE = 0
CLASSIFICATION_TYPE = U
NORAD_CAT_ID   = 68066
ELEMENT_SET_NO = 999
REV_AT_EPOCH   = 384
BSTAR          = .43086E-3
MEAN_MOTION_DOT = .65825E-3
MEAN_MOTION_DDOT = 0

CCSDS_OMM_VERS = 2.0
CREATION_DATE  = 
ORIGINATOR     = 

OBJECT_NAME    = STARLINK-36929
OBJECT_ID      = 2026-041AD
CENTER_NAME    = EARTH
REF_FRAME      = TEME
TIME_SYSTEM    = UTC
MEAN_ELEMENT_THEORY = SGP/SGP4

EPOCH          = 2026-03-18T20:00:01.999008
MEAN_MOTION    = 15.75188896
ECCENTRICITY   = .0000949
INCLINATION    = 53.1606
RA_OF_ASC_NODE = 16.2183
ARG_OF_PERICENTER = 84.1640
MEAN_ANOMALY   = 352.5469

EPHEMERIS_TYPE = 0
CLASSIFICATION_TYPE = U
NORAD_CAT_ID   = 68067
ELEMENT_SET_NO = 999
REV_AT_EPOCH   = 384
BSTAR          = .61579E-3
MEAN_MOTION_DOT = .94607E-3
MEAN_MOTION_DDOT = 0

CCSDS_OMM_VERS = 2.0
CREATION_DATE  = 
ORIGINATOR     = 

OBJECT_NAME    = STARLINK-36990
OBJECT_ID      = 2026-041AE
CENTER_NAME    = EARTH
REF_FRAME      = TEME
TIME_SYSTEM    = UTC
MEAN_ELEMENT_THEORY = SGP/SGP4

EPOCH          = 2026-03-18T19:22:12.055008
MEAN_MOTION    = 15.80958324
ECCENTRICITY   = .000081
INCLINATION    = 53.1596
RA_OF_ASC_NODE = 16.2001
ARG_OF_PERICENTER = 126.5098
MEAN_ANOMALY   = 233.5999

EPHEMERIS_TYPE = 0
CLASSIFICATION_TYPE = U
NORAD_CAT_ID   = 68068
ELEMENT_SET_NO = 999
REV_AT_EPOCH   = 266
BSTAR          = .11407E-2
MEAN_MOTION_DOT = .231492E-2
MEAN_MOTION_DDOT = 0

CCSDS_OMM_VERS = 2.0
CREATION_DATE  = 
ORIGINATOR     = 

OBJECT_NAME    = STARLINK-36766
OBJECT_ID      = 2026-042A
CENTER_NAME    = EARTH
REF_FRAME      = TEME
TIME_SYSTEM    = UTC
MEAN_ELEMENT_THEORY = SGP/SGP4

EPOCH          = 2026-03-18T14:00:01.000224
MEAN_MOTION    = 15.80871725
ECCENTRICITY   = .0001308
INCLINATION    = 53.1596
RA_OF_ASC_NODE = 150.2093
ARG_OF_PERICENTER = 85.9481
MEAN_ANOMALY   = 121.3905

EPHEMERIS_TYPE = 0
CLASSIFICATION_TYPE = U
NORAD_CAT_ID   = 68069
ELEMENT_SET_NO = 999
REV_AT_EPOCH   = 347
BSTAR          = .33524429E-4
MEAN_MOTION_DOT = .5922E-4
MEAN_MOTION_DDOT = 0

CCSDS_OMM_VERS = 2.0
CREATION_DATE  = 
ORIGINATOR     = 

OBJECT_NAME    = STARLINK-36823
OBJECT_ID      = 2026-042B
CENTER_NAME    = EARTH
REF_FRAME      = TEME
TIME_SYSTEM    = UTC
MEAN_ELEMENT_THEORY = SGP/SGP4

EPOCH          = 2026-03-18T14:00:01.000224
MEAN_MOTION    = 15.80851005
ECCENTRICITY   = .00013265
INCLINATION    = 53.1595
RA_OF_ASC_NODE = 150.2005
ARG_OF_PERICENTER = 70.1772
MEAN_ANOMALY   = 141.4365

EPHEMERIS_TYPE = 0
CLASSIFICATION_TYPE = U
NORAD_CAT_ID   = 68070
ELEMENT_SET_NO = 999
REV_AT_EPOCH   = 347
BSTAR          = .3653818E-3
MEAN_MOTION_DOT = .71945E-3
MEAN_MOTION_DDOT = 0

CCSDS_OMM_VERS = 2.0
CREATION_DATE  = 
ORIGINATOR     = 

OBJECT_NAME    = STARLINK-36970
OBJECT_ID      = 2026-042C
CENTER_NAME    = EARTH
REF_FRAME      = TEME
TIME_SYSTEM    = UTC
MEAN_ELEMENT_THEORY = SGP/SGP4

EPOCH          = 2026-03-18T14:00:01.000224
MEAN_MOTION    = 15.80849841
ECCENTRICITY   = .00013133
INCLINATION    = 53.1594
RA_OF_ASC_NODE = 150.1827
ARG_OF_PERICENTER = 66.8363
MEAN_ANOMALY   = 153.3209

EPHEMERIS_TYPE = 0
CLASSIFICATION_TYPE = U
NORAD_CAT_ID   = 68071
ELEMENT_SET_NO = 999
REV_AT_EPOCH   = 348
BSTAR          = .33774943E-3
MEAN_MOTION_DOT = .66405E-3
MEAN_MOTION_DDOT = 0

CCSDS_OMM_VERS = 2.0
CREATION_DATE  = 
ORIGINATOR     = 

OBJECT_NAME    = STARLINK-36972
OBJECT_ID      = 2026-042D
CENTER_NAME    = EARTH
REF_FRAME      = TEME
TIME_SYSTEM    = UTC
MEAN_ELEMENT_THEORY = SGP/SGP4

EPOCH          = 2026-03-18T14:00:01.000224
MEAN_MOTION    = 15.80851739
ECCENTRICITY   = .00011386
INCLINATION    = 53.1595
RA_OF_ASC_NODE = 150.1919
ARG_OF_PERICENTER = 83.3383
MEAN_ANOMALY   = 132.5471

EPHEMERIS_TYPE = 0
CLASSIFICATION_TYPE = U
NORAD_CAT_ID   = 68072
ELEMENT_SET_NO = 999
REV_AT_EPOCH   = 348
BSTAR          = .29643687E-3
MEAN_MOTION_DOT = .58145E-3
MEAN_MOTION_DDOT = 0

CCSDS_OMM_VERS = 2.0
CREATION_DATE  = 
ORIGINATOR     = 

OBJECT_NAME    = STARLINK-37074
OBJECT_ID      = 2026-042E
CENTER_NAME    = EARTH
REF_FRAME      = TEME
TIME_SYSTEM    = UTC
MEAN_ELEMENT_THEORY = SGP/SGP4

EPOCH          = 2026-03-18T14:00:01.000224
MEAN_MOTION    = 15.80850883
ECCENTRICITY   = .00013196
INCLINATION    = 53.1595
RA_OF_ASC_NODE = 150.1744
ARG_OF_PERICENTER = 76.8182
MEAN_ANOMALY   = 147.6112

EPHEMERIS_TYPE = 0
CLASSIFICATION_TYPE = U
NORAD_CAT_ID   = 68073
ELEMENT_SET_NO = 999
REV_AT_EPOCH   = 348
BSTAR          = .2866816E-3
MEAN_MOTION_DOT = .56194E-3
MEAN_MOTION_DDOT = 0

CCSDS_OMM_VERS = 2.0
CREATION_DATE  = 
ORIGINATOR     = 

OBJECT_NAME    = STARLINK-37045
OBJECT_ID      = 2026-042F
CENTER_NAME    = EARTH
REF_FRAME      = TEME
TIME_SYSTEM    = UTC
MEAN_ELEMENT_THEORY = SGP/SGP4

EPOCH          = 2026-03-18T14:00:01.000224
MEAN_MOTION    = 15.80854648
ECCENTRICITY   = .00012213
INCLINATION    = 53.1595
RA_OF_ASC_NODE = 150.1652
ARG_OF_PERICENTER = 73.8146
MEAN_ANOMALY   = 154.8841

EPHEMERIS_TYPE = 0
CLASSIFICATION_TYPE = U
NORAD_CAT_ID   = 68074
ELEMENT_SET_NO = 999
REV_AT_EPOCH   = 348
BSTAR          = .24011629E-3
MEAN_MOTION_DOT = .4691E-3
MEAN_MOTION_DDOT = 0

CCSDS_OMM_VERS = 2.0
CREATION_DATE  = 
ORIGINATOR     = 

OBJECT_NAME    = STARLINK-37026
OBJECT_ID      = 2026-042G
CENTER_NAME    = EARTH
REF_FRAME      = TEME
TIME_SYSTEM    = UTC
MEAN_ELEMENT_THEORY = SGP/SGP4

EPOCH          = 2026-03-18T14:00:01.000224
MEAN_MOTION    = 15.75667114
ECCENTRICITY   = .00012452
INCLINATION    = 53.1594
RA_OF_ASC_NODE = 150.1759
ARG_OF_PERICENTER = 59.1428
MEAN_ANOMALY   = 163.9557

EPHEMERIS_TYPE = 0
CLASSIFICATION_TYPE = U
NORAD_CAT_ID   = 68075
ELEMENT_SET_NO = 999
REV_AT_EPOCH   = 348
BSTAR          = -.44471004E-2
MEAN_MOTION_DOT = -.64482E-2
MEAN_MOTION_DDOT = 0

CCSDS_OMM_VERS = 2.0
CREATION_DATE  = 
ORIGINATOR     = 

OBJECT_NAME    = STARLINK-37023
OBJECT_ID      = 2026-042H
CENTER_NAME    = EARTH
REF_FRAME      = TEME
TIME_SYSTEM    = UTC
MEAN_ELEMENT_THEORY = SGP/SGP4

EPOCH          = 2026-03-18T14:00:01.000224
MEAN_MOTION    = 15.81190271
ECCENTRICITY   = .00011784
INCLINATION    = 53.1593
RA_OF_ASC_NODE = 150.1475
ARG_OF_PERICENTER = 85.1390
MEAN_ANOMALY   = 152.0701

EPHEMERIS_TYPE = 0
CLASSIFICATION_TYPE = U
NORAD_CAT_ID   = 68076
ELEMENT_SET_NO = 999
REV_AT_EPOCH   = 348
BSTAR          = -.10204861E-1
MEAN_MOTION_DOT = -.1798952E-1
MEAN_MOTION_DDOT = 0

CCSDS_OMM_VERS = 2.0
CREATION_DATE  = 
ORIGINATOR     = 

OBJECT_NAME    = STARLINK-37036
OBJECT_ID      = 2026-042J
CENTER_NAME    = EARTH
REF_FRAME      = TEME
TIME_SYSTEM    = UTC
MEAN_ELEMENT_THEORY = SGP/SGP4

EPOCH          = 2026-03-18T14:00:01.000224
MEAN_MOTION    = 15.80008079
ECCENTRICITY   = .00011021
INCLINATION    = 53.1594
RA_OF_ASC_NODE = 150.1390
ARG_OF_PERICENTER = 68.4472
MEAN_ANOMALY   = 172.7261

EPHEMERIS_TYPE = 0
CLASSIFICATION_TYPE = U
NORAD_CAT_ID   = 68077
ELEMENT_SET_NO = 999
REV_AT_EPOCH   = 348
BSTAR          = -.11575943E-1
MEAN_MOTION_DOT = -.1913913E-1
MEAN_MOTION_DDOT = 0

