STARLINK-36976          
1 68066U 26041AC  26077.83335647  .00065825  00000+0  43086-3 0  9999
2 68066  53.1601  16.1698 0001143 110.4062 350.1797 15.75205882  3848
STARLINK-36929          
1 68067U 26041AD  26077.83335647  .00094607  00000+0  61579-3 0  9997
2 68067  53.1606  16.2183 0000949  84.1640 352.5469 15.75188896  3843
STARLINK-36990          
1 68068U 26041AE  26077.80708397  .00231492  00000+0  11407-2 0  9990
2 68068  53.1596  16.2001 0000810 126.5098 233.5999 15.80958324  2668
STARLINK-36766          
1 68069U 26042A   26077.58334491  .00005922  00000+0  33524-4 0  9990
2 68069  53.1596 150.2093 0001308  85.9481 121.3905 15.80871725  3476
STARLINK-36823          
1 68070U 26042B   26077.58334491  .00071945  00000+0  36538-3 0  9997
2 68070  53.1595 150.2005 0001326  70.1772 141.4365 15.80851005  3471
STARLINK-36970          
1 68071U 26042C   26077.58334491  .00066405  00000+0  33775-3 0  9993
2 68071  53.1594 150.1827 0001313  66.8363 153.3209 15.80849841  3481
STARLINK-36972          
1 68072U 26042D   26077.58334491  .00058145  00000+0  29644-3 0  9996
2 68072  53.1595 150.1919 0001138  83.3383 132.5471 15.80851739  3485
STARLINK-37074          
1 68073U 26042E   26077.58334491  .00056194  00000+0  28668-3 0  9994
2 68073  53.1595 150.1744 0001319  76.8182 147.6112 15.80850883  3485
STARLINK-37045          
1 68074U 26042F   26077.58334491  .00046910  00000+0  24012-3 0  9999
2 68074  53.1595 150.1652 0001221  73.8146 154.8841 15.80854648  3485
STARLINK-37026          
1 68075U 26042G   26077.58334491 -.00644820  00000+0 -44471-2 0  9996
2 68075  53.1594 150.1759 0001245  59.1428 163.9557 15.75667114  3488
STARLINK-37023          
1 68076U 26042H   26077.58334491 -.01798952  00000+0 -10205-1 0  9991
2 68076  53.1593 150.1475 0001178  85.1390 152.0701 15.81190271  3487
STARLINK-37036          
1 68077U 26042J   26077.58334491 -.01913913  00000+0 -11576-1 0  9990
2 68077  53.1594 150.1390 0001102  68.4472 172.7261 15.80008079  3480
